#aV2010  3  2  0  0   .00000000      96 DD+AD WGS84 FIT  NGA
## 1573 172800.00000000   900.00000000 55257  .0000000000000
+   31     1  2  3  4  5  6  7  8  9 10 11 12 13 14 15 16 17
+         18 19 20 21 22 23 24 26 27 28 29 30 31 32  0  0  0
+          0  0  0  0  0  0  0  0  0  0  0  0  0  0  0  0  0
+          0  0  0  0  0  0  0  0  0  0  0  0  0  0  0  0  0
+          0  0  0  0  0  0  0  0  0  0  0  0  0  0  0  0  0
++         0  0  0  0  0  0  0  0  0  0  0  0  0  0  0  0  0
++         0  0  0  0  0  0  0  0  0  0  0  0  0  0  0  0  0
++         0  0  0  0  0  0  0  0  0  0  0  0  0  0  0  0  0
++         0  0  0  0  0  0  0  0  0  0  0  0  0  0  0  0  0
++         0  0  0  0  0  0  0  0  0  0  0  0  0  0  0  0  0
%c cc cc ccc ccc cccc cccc cccc cccc ccccc ccccc ccccc ccccc
%c cc cc ccc ccc cccc cccc cccc cccc ccccc ccccc ccccc ccccc
%f  0.0000000  0.000000000  0.00000000000  0.000000000000000
%f  0.0000000  0.000000000  0.00000000000  0.000000000000000
%i    0    0    0    0      0      0      0      0         0
%i    0    0    0    0      0      0      0      0         0
/*      NGA, ST. LOUIS,MO.                                  
/*   EPHEMERIS COMPUTED FROM  3 DAYS OF DATA                
/* CCCCCCCCCCCCCCCCCCCCCCCCCCCCCCCCCCCCCCCCCCCCCCCCCCCCCCCCC
/* CCCCCCCCCCCCCCCCCCCCCCCCCCCCCCCCCCCCCCCCCCCCCCCCCCCCCCCCC
*  2010  3  2  6 30   .00000000                                                 
P  1  11687.636139  15176.730098 -18581.086144    -94.214353                    
V  1 -23171.159621  -2732.331902 -16772.718741      -.039881                    
P  2 -20591.313610   9606.031175 -13432.538151    232.043018                    
V  2   8606.315395 -15189.687999 -24590.088619       .039532                    
P  3  15429.812411  -4156.538698  20887.756241    522.604801                    
V  3  11962.903036  24711.023431  -3509.962655       .050569                    
P  4 -16437.062003  -4058.903226 -20705.675014     27.027740                    
V  4  16222.126391 -20222.981808  -8623.750888       .089064                    
P  5 -24199.063793   3195.969781  10555.380402     -5.456487                    
V  5 -12766.874617  -4779.649096 -27679.544376       .018411                    
P  6  16714.702538    136.548726  20843.692502    696.091308                    
V  6   9260.554090  24449.020372  -7528.899389      -.063600                    
P  7   1389.312054 -19965.145050  17374.963062      2.181715                    
V  7  15571.659592 -15782.800344 -19524.509726      -.004556                    
P  8  -9375.059913 -11142.347323  22172.733659      3.777880                    
V  8  19860.427772 -19935.322848  -2125.650045       .003456                    
P  9 -15626.600073  21420.578042  -1709.497708    109.084715                    
V  9  -2596.961705   -326.404999  32100.963051       .022433                    
P 10 -26311.616542  -2644.824265   3835.879145    -36.817777                    
V 10  -4399.869757  -3677.090712 -30883.485512      -.009836                    
P 11   9647.921493 -24370.108321  -3126.151150    -48.219574                    
V 11   6424.523352   -940.777790  29949.630982      -.021581                    
P 12  -9856.702726  12787.974148 -21005.595267   -143.803065                    
V 12 -26185.204597  -5791.053890   8877.061510       .046823                    
P 13  -4695.153326 -25856.480213  -3927.811403    306.261372                    
V 13   2984.110295   4148.440720 -31970.053661      -.001725                    
P 14  14349.750225  18487.706496 -12539.779733     17.434600                    
V 14   3203.123900  15809.882066  26568.345844       .041932                    
P 15 -10597.079321  13103.923141  20523.321312   -302.163802                    
V 15 -10127.563568 -24036.284093  10238.542973       .034829                    
P 16  26190.430123   2105.448082   4817.502825    -46.776558                    
V 16   5423.302720   3395.216975 -31026.153285      -.039721                    
P 17 -15312.180806 -17581.105747 -12822.882677    133.790144                    
V 17  -3118.483258 -16198.986585  25541.539660       .030487                    
P 18  10300.781624  16191.684920  18767.579760     52.376673                    
V 18 -23069.109396  -3267.475029  15323.892851       .025769                    
P 19  10781.638061 -13749.242479  19954.276653    -18.832428                    
V 19   7920.680940  24119.246610  12650.773276      -.023747                    
P 20   5866.456031 -14921.026699 -21307.277637     60.317423                    
V 20  26454.178540   4508.021359   4210.699503      -.007231                    
P 21   3853.101228  17653.592253  19576.967624    -43.961570                    
V 21 -17440.027926  17290.965975 -12986.768913      -.025011                    
P 22  21075.937047  12445.731281  10570.104204    177.921350                    
V 22 -13557.061503    226.677260  27091.809243      -.007826                    
P 23   1802.579962 -22734.936042 -13380.671227    378.542066                    
V 23   7722.783833  15361.357261 -25408.830587      -.010443                    
P 24  -2856.826904  20585.040923  16786.247932    266.871543                    
V 24 -15756.151823  14098.352912 -19826.809549       .033352                    
P 26   7532.159260  25192.941187   -417.803881    -23.641882                    
V 26  -2182.194140    505.352854  32734.889741      -.038985                    
P 27 -17406.601431  19860.566949   2767.326759    130.507903                    
V 27   -243.457604  -3541.585593  31955.857303       .032686                    
P 28 -19255.554426 -13435.725253  13170.115479    -21.247154                    
V 28  15835.975570   1683.630780  25509.672829       .007089                    
P 29   3746.039964  25556.600588  -6180.890618    101.935859                    
V 29  -5012.743649  -6743.219808 -30425.124611       .029589                    
P 30   2195.715041  15773.936742 -21652.542078    220.896967                    
V 30 -26407.037509  -3199.448771  -5045.723883       .033306                    
P 31  16965.064354   1179.537616 -20231.863456    -49.281285                    
V 31 -16249.121221  20421.731575 -12139.140568       .017067                    
P 32  16071.091085  -9122.199170 -18599.318127     83.737675                    
V 32  23169.259230   8075.791114  16080.223306      -.085272                    
EOF
